[{"OBJECT_NAME":"TISAT 1","OBJECT_ID":"2010-035E","EPOCH":"2026-03-09T18:10:07.877568","MEAN_MOTION":15.27628633,"ECCENTRICITY":0.00013432,"INCLINATION":98.0645,"RA_OF_ASC_NODE":6.8512,"ARG_OF_PERICENTER":159.303,"MEAN_ANOMALY":200.8262,"EPHEMERIS_TYPE":0,"CLASSIFICATION_TYPE":"U","NORAD_CAT_ID":36799,"ELEMENT_SET_NO":999,"REV_AT_EPOCH":85250,"BSTAR":0.00091004793,"MEAN_MOTION_DOT":0.00024554,"MEAN_MOTION_DDOT":0},{"OBJECT_NAME":"STARLINK-31152","OBJECT_ID":"2024-005G","EPOCH":"2026-03-09T11:11:59.277984","MEAN_MOTION":15.26736091,"ECCENTRICITY":0.00013467,"INCLINATION":42.9985,"RA_OF_ASC_NODE":220.6599,"ARG_OF_PERICENTER":280.6789,"MEAN_ANOMALY":79.391,"EPHEMERIS_TYPE":0,"CLASSIFICATION_TYPE":"U","NORAD_CAT_ID":58734,"ELEMENT_SET_NO":999,"REV_AT_EPOCH":12041,"BSTAR":-0.0001215847,"MEAN_MOTION_DOT":-3.519e-5,"MEAN_MOTION_DDOT":0}]
